     2.100          NAVIGATION                              RINEX VERSION / TYPE
fic2rin                                 09/27/2008 02:40:02 PGM / RUN BY / DATE
                                                            END OF HEADER
24 08  9 26 10  0  0.0  .128315296024D-03  .306954461848D-11  .000000000000D+00
     .710000000000D+02  .370625000000D+02  .509164065870D-08 -.929848271570D+00
     .182911753654D-05  .749837886542D-02  .514462590218D-05  .515365400696D+04
     .468000000000D+06 -.143423676491D-06 -.224391121493D+01 -.670552253723D-07
     .952088898096D+00  .276843750000D+03 -.705453982567D+00 -.848571060676D-08
     .410731394325D-09  .100000000000D+01  .149800000000D+04  .000000000000D+00
     .240000000000D+01  .000000000000D+00 -.139698386192D-08  .710000000000D+02
     .460806000000D+06  .400000000000D+01
25 08  9 26 10  0  0.0 -.125603284687D-03  .409272615798D-10  .000000000000D+00
     .760000000000D+02  .646250000000D+02  .484627329531D-08 -.425139841627D+00
     .343099236488D-05  .115918152733D-01  .420771539211D-05  .515369340324D+04
     .468000000000D+06 -.558793544769D-07  .751667446195D+00 -.521540641785D-07
     .966436216999D+00  .302937500000D+03 -.124940553816D+01 -.865107463770D-08
     .340014162955D-09  .100000000000D+01  .149800000000D+04  .000000000000D+00
     .240000000000D+01  .000000000000D+00 -.745058059692D-08  .760000000000D+02
     .460806000000D+06  .400000000000D+01
26 08  9 26 10  0  0.0  .331009272486D-03  .534328137292D-11  .000000000000D+00
     .100000000000D+02  .722812500000D+02  .352443252105D-08  .245663026341D+01
     .358931720257D-05  .191551651806D-01  .124294310808D-04  .515363642883D+04
     .468000000000D+06  .409781932831D-07 -.151390808892D+00 -.288709998131D-06
     .993668473618D+00  .153687500000D+03  .954547800062D+00 -.724958768871D-08
     .210365905441D-09  .100000000000D+01  .149800000000D+04  .000000000000D+00
     .240000000000D+01  .000000000000D+00 -.605359673500D-08  .100000000000D+02
     .460806000000D+06  .400000000000D+01
28 08  9 26 10  0  0.0 -.227871350944D-04 -.341060513165D-12  .000000000000D+00
     .450000000000D+02 -.931250000000D+02  .451804533758D-08 -.167336598108D+01
    -.486895442009D-05  .140122981975D-01  .680796802044D-05  .515363476372D+04
     .468000000000D+06  .305473804474D-06  .192239280571D+01  .167638063431D-07
     .964375790511D+00  .248312500000D+03 -.209046408449D+01 -.801569102856D-08
    -.443589905872D-09  .100000000000D+01  .149800000000D+04  .000000000000D+00
     .340000000000D+01  .000000000000D+00 -.102445483208D-07  .450000000000D+02
     .460806000000D+06  .400000000000D+01
31 08  9 26 10  0  0.0 -.287452712655D-04 -.238742359215D-11  .000000000000D+00
     .800000000000D+02  .596875000000D+02  .472341103474D-08  .121367991711D+01
     .292062759399D-05  .671192072332D-02  .385753810406D-05  .515354224205D+04
     .468000000000D+06 -.130385160446D-07  .843360325046D+00 -.134110450745D-06
     .969405994828D+00  .308656250000D+03 -.123831079963D+01 -.838320633705D-08
     .261796619166D-09  .100000000000D+01  .149800000000D+04  .000000000000D+00
     .240000000000D+01  .000000000000D+00 -.130385160446D-07  .800000000000D+02
     .460806000000D+06  .400000000000D+01
32 08  9 26 10  0  0.0  .316528137773D-03  .113686837722D-12  .000000000000D+00
     .880000000000D+02 -.565937500000D+02  .446911472800D-08  .220667703129D+01
    -.299327075481D-05  .139439099003D-01  .797212123871D-05  .515375497246D+04
     .468000000000D+06  .188127160072D-06 -.116222763558D+01  .167638063431D-07
     .967154221581D+00  .230656250000D+03 -.128215719890D+01 -.784746973576D-08
    -.499306512406D-09  .100000000000D+01  .149800000000D+04  .000000000000D+00
     .240000000000D+01  .000000000000D+00 -.325962901115D-08  .880000000000D+02
     .460806000000D+06  .400000000000D+01
13 08  9 26  9 59 44.0  .272305682302D-03  .113686837722D-11  .000000000000D+00
     .150000000000D+02  .630937500000D+02  .362086510928D-08 -.252733433035D+01
     .330433249474D-05  .366713036783D-02  .115595757961D-04  .515357794189D+04
     .467984000000D+06  .409781932831D-07 -.149695942225D+00  .521540641785D-07
     .995756619477D+00  .175781250000D+03  .155174299354D+01 -.750888420374D-08
     .193222334200D-09  .100000000000D+01  .149800000000D+04  .000000000000D+00
     .240000000000D+01  .000000000000D+00 -.111758708954D-07  .150000000000D+02
     .467706000000D+06  .400000000000D+01
 1 08  9 26  9 59 44.0  .317115336657D-06  .238742359215D-11  .000000000000D+00
     .105000000000D+03  .510937500000D+02  .362943689490D-08  .280020502853D+01
     .267475843430D-05  .735335773788D-02  .120867043734D-04  .515366908646D+04
     .467984000000D+06  .465661287308D-07 -.138556596398D+00 -.121071934700D-06
     .991611305048D+00  .161843750000D+03 -.183133917817D+01 -.742566645167D-08
     .123933733766D-09  .100000000000D+01  .149800000000D+04  .000000000000D+00
     .240000000000D+01  .630000000000D+02 -.372529029846D-08  .105000000000D+03
     .467826000000D+06  .400000000000D+01
 1 08  9 26 11 59 44.0  .334344804287D-06  .238742359215D-11  .000000000000D+00
     .106000000000D+03  .595000000000D+02  .355871966353D-08 -.243282611832D+01
     .304542481899D-05  .735175539739D-02  .124573707581D-04  .515367196465D+04
     .475184000000D+06  .117346644402D-06 -.138610825309D+00  .204890966415D-07
     .991612652396D+00  .151750000000D+03 -.183131737777D+01 -.744709591572D-08
     .249653256203D-09  .100000000000D+01  .149800000000D+04  .000000000000D+00
     .240000000000D+01  .630000000000D+02 -.372529029846D-08  .106000000000D+03
     .468006000000D+06  .400000000000D+01
13 08  9 26 11 59 44.0  .272314064205D-03  .113686837722D-11  .000000000000D+00
     .160000000000D+02  .539375000000D+02  .353943314588D-08 -.147693703743D+01
     .301748514175D-05  .366635841783D-02  .118203461170D-04  .515357957840D+04
     .475184000000D+06  .372529029846D-08 -.149750011678D+00  .670552253723D-07
     .995757960973D+00  .174437500000D+03  .155157731953D+01 -.752531345951D-08
     .195008122871D-09  .100000000000D+01  .149800000000D+04  .000000000000D+00
     .240000000000D+01  .000000000000D+00 -.111758708954D-07  .160000000000D+02
     .468006000000D+06  .400000000000D+01
 2 08  9 26 12  0  0.0  .184572767466D-03 -.272848410532D-11  .000000000000D+00
     .103000000000D+03  .485625000000D+02  .517092967569D-08 -.206503725311D+01
     .264309346676D-05  .875658006407D-02  .514462590218D-05  .515377454567D+04
     .475200000000D+06 -.180676579475D-06 -.230544057357D+01 -.149011611938D-07
     .942691873072D+00  .271750000000D+03  .264516466621D+01 -.850428280894D-08
     .367158150754D-09  .100000000000D+01  .149800000000D+04  .000000000000D+00
     .340000000000D+01  .000000000000D+00 -.172294676304D-07  .103000000000D+03
     .468006000000D+06  .400000000000D+01
 3 08  9 26 12  0  0.0  .288621988147D-03  .511590769747D-11  .000000000000D+00
     .126000000000D+03 -.358125000000D+02  .490449000598D-08 -.238681605297D+01
    -.182725489140D-05  .112356207101D-01  .125393271446D-04  .515371037102D+04
     .475200000000D+06  .122934579849D-06  .283312523938D+01 -.819563865662D-07
     .926450603369D+00  .117312500000D+03  .853262805821D+00 -.802390565645D-08
     .153220667970D-09  .100000000000D+01  .149800000000D+04  .000000000000D+00
     .240000000000D+01  .000000000000D+00 -.419095158577D-08  .126000000000D+03
     .468006000000D+06  .400000000000D+01
 4 08  9 26 12  0  0.0 -.182533636689D-03 -.112549969344D-10  .000000000000D+00
     .330000000000D+02  .512812500000D+02  .520914555325D-08  .765559825371D+00
     .288151204586D-05  .832126953173D-02  .476092100143D-05  .515358639908D+04
     .475200000000D+06 -.204890966415D-07 -.228674655640D+01  .158324837685D-06
     .941953147718D+00  .275500000000D+03  .402005895879D+00 -.860642992092D-08
     .235009789101D-09  .100000000000D+01  .149800000000D+04  .000000000000D+00
     .240000000000D+01  .000000000000D+00 -.605359673500D-08  .330000000000D+02
     .468006000000D+06  .400000000000D+01
 5 08  9 26 12  0  0.0 -.152038875967D-03 -.939053279581D-10  .000000000000D+00
     .240000000000D+02 -.936250000000D+02  .527807699595D-08  .345892663726D+00
    -.485219061375D-05  .933515408542D-02  .558234751225D-05  .515368981552D+04
     .475200000000D+06 -.800937414169D-07  .180101808999D+01  .763684511185D-07
     .943402252925D+00  .262093750000D+03  .127692627345D+01 -.878465163029D-08
    -.479662837025D-09  .100000000000D+01  .149800000000D+04  .000000000000D+00
     .340000000000D+01  .630000000000D+02 -.419095158577D-08  .240000000000D+02
     .468006000000D+06  .400000000000D+01
 6 08  9 26 12  0  0.0  .164307653904D-03 -.261479726760D-11  .000000000000D+00
     .320000000000D+02 -.220937500000D+02  .481841499204D-08  .204206748042D+00
    -.100396573544D-05  .569937250111D-02  .127572566271D-04  .515372392845D+04
     .475200000000D+06 -.113621354103D-06  .289870144198D+01 -.279396772385D-07
     .934019592294D+00  .122781250000D+03 -.156718464538D+01 -.819391273793D-08
     .850035407387D-10  .100000000000D+01  .149800000000D+04  .000000000000D+00
     .240000000000D+01  .000000000000D+00 -.465661287308D-08  .320000000000D+02
     .468006000000D+06  .400000000000D+01
 7 08  9 26 12  0  0.0  .193533487618D-04  .193267624127D-11  .000000000000D+00
     .330000000000D+02  .591875000000D+02  .488984653888D-08  .256546351118D+01
     .313669443130D-05  .223154935520D-02  .356137752533D-05  .515369515991D+04
     .475200000000D+06 -.186264514923D-08  .846574755442D+00  .163912773132D-06
     .963947350082D+00  .312375000000D+03  .274241371962D+01 -.848071039849D-08
     .366086677551D-09  .100000000000D+01  .149800000000D+04  .000000000000D+00
     .240000000000D+01  .000000000000D+00 -.107102096081D-07  .330000000000D+02
     .468006000000D+06  .400000000000D+01
